STARLINK-31433          
1 59243U 24049N   26067.62118094 -.00000658  00000+0 -14393-4 0  9998
2 59243  43.0018 149.4846 0001332 233.1987 126.8743 15.27571687112249
LUR-1                   
1 60506U 24149AQ  26068.79566301  .00009121  00000+0  32985-3 0  9998
2 60506  97.3790 148.4255 0002777 309.1571  50.9421 15.28658648 86785
